{
  "43800": {
    "name": "ICEYE-43800",
    "line1": "1 43800U 18099AU  26066.96199448  .00009055  00000-0  46891-3 0  9992",
    "line2": "2 43800  97.4490 122.6192 0009049 297.7714  62.2601 15.16398239397476",
    "meta": {
      "display_name": "ICEYE-43800",
      "type": "sar",
      "swath_km": 5.0,
      "resolution_m": 1.0,
      "off_nadir_deg": 40,
      "altitude_km": 580.0,
      "priority": 10
    }
  },
  "44389": {
    "name": "ICEYE-44389",
    "line1": "1 44389U 19038C   26066.93824537  .00052085  00000-0  10129-2 0  9995",
    "line2": "2 44389  97.8842 112.0723 0005935 249.2739 110.7874 15.47418096367269",
    "meta": {
      "display_name": "ICEYE-44389",
      "type": "sar",
      "swath_km": 5.0,
      "resolution_m": 1.0,
      "off_nadir_deg": 40,
      "altitude_km": 580.0,
      "priority": 10
    }
  },
  "44390": {
    "name": "ICEYE-44390",
    "line1": "1 44390U 19038D   26066.96434348  .00018565  00000-0  70269-3 0  9994",
    "line2": "2 44390  97.8886  94.0458 0012412 302.0507  57.9525 15.26922609366342",
    "meta": {
      "display_name": "ICEYE-44390",
      "type": "sar",
      "swath_km": 5.0,
      "resolution_m": 1.0,
      "off_nadir_deg": 40,
      "altitude_km": 580.0,
      "priority": 10
    }
  },
  "46496": {
    "name": "ICEYE-46496",
    "line1": "1 46496U 20068L   26066.98994362  .00019791  00000-0  70223-3 0  9999",
    "line2": "2 46496  97.7412  29.1657 0007160 339.8689  20.2266 15.29080353299319",
    "meta": {
      "display_name": "ICEYE-46496",
      "type": "sar",
      "swath_km": 5.0,
      "resolution_m": 1.0,
      "off_nadir_deg": 40,
      "altitude_km": 580.0,
      "priority": 10
    }
  },
  "46497": {
    "name": "ICEYE-46497",
    "line1": "1 46497U 20068M   26066.94718384  .00004357  00000-0  32081-3 0  9996",
    "line2": "2 46497  98.0948  55.8516 0009291  74.0004 286.2243 15.03890981298017",
    "meta": {
      "display_name": "ICEYE-46497",
      "type": "sar",
      "swath_km": 5.0,
      "resolution_m": 1.0,
      "off_nadir_deg": 40,
      "altitude_km": 580.0,
      "priority": 10
    }
  },
  "48918": {
    "name": "ICEYE-48918",
    "line1": "1 48918U 21059AR  26066.96429490  .00110739  00000-0  78500-3 0  9994",
    "line2": "2 48918  97.6453 254.7302 0004665 341.4185  18.6908 15.73602684261964",
    "meta": {
      "display_name": "ICEYE-48918",
      "type": "sar",
      "swath_km": 5.0,
      "resolution_m": 1.0,
      "off_nadir_deg": 40,
      "altitude_km": 580.0,
      "priority": 10
    }
  },
  "55049": {
    "name": "ICEYE-55049",
    "line1": "1 55049U 23001AS  26066.69453608  .00109085  00000-0  68844-3 0  9996",
    "line2": "2 55049  97.3391 145.4616 0004204  81.6687 278.5055 15.76305382177502",
    "meta": {
      "display_name": "ICEYE-55049",
      "type": "sar",
      "swath_km": 5.0,
      "resolution_m": 1.0,
      "off_nadir_deg": 40,
      "altitude_km": 580.0,
      "priority": 10
    }
  },
  "56947": {
    "name": "ICEYE-56947",
    "line1": "1 56947U 23084R   26066.97888002  .00137567  00000-0  10295-2 0  9998",
    "line2": "2 56947  97.5710 218.0990 0004739 288.0979  71.9767 15.72241932152952",
    "meta": {
      "display_name": "ICEYE-56947",
      "type": "sar",
      "swath_km": 5.0,
      "resolution_m": 1.0,
      "off_nadir_deg": 40,
      "altitude_km": 580.0,
      "priority": 10
    }
  },
  "56961": {
    "name": "ICEYE-56961",
    "line1": "1 56961U 23084AF  26066.39769696  .00083587  00000-0  61386-3 0  9997",
    "line2": "2 56961  97.5771 221.8018 0000851 250.8149 109.3022 15.72866517153149",
    "meta": {
      "display_name": "ICEYE-56961",
      "type": "sar",
      "swath_km": 5.0,
      "resolution_m": 1.0,
      "off_nadir_deg": 40,
      "altitude_km": 580.0,
      "priority": 10
    }
  },
  "56963": {
    "name": "ICEYE-56963",
    "line1": "1 56963U 23084AH  26066.97189633  .00072325  00000-0  12158-2 0  9990",
    "line2": "2 56963  97.5763 206.9912 0003991 288.3455  71.7362 15.51501285152236",
    "meta": {
      "display_name": "ICEYE-56963",
      "type": "sar",
      "swath_km": 5.0,
      "resolution_m": 1.0,
      "off_nadir_deg": 40,
      "altitude_km": 580.0,
      "priority": 10
    }
  },
  "58270": {
    "name": "PlanetScope-58270",
    "line1": "1 58270U 23174Q   26066.98442580  .00104585  00000-0  11306-2 0  9995",
    "line2": "2 58270  97.3811 156.1176 0006970 167.1975 192.9462 15.63239423130104",
    "meta": {
      "display_name": "PlanetScope-58270",
      "type": "optical",
      "swath_km": 8.0,
      "resolution_m": 4.0,
      "off_nadir_deg": 0,
      "altitude_km": 525.0,
      "priority": 10
    }
  },
  "58271": {
    "name": "PlanetScope-58271",
    "line1": "1 58271U 23174R   26066.74743760  .00032497  00000-0  69669-3 0  9992",
    "line2": "2 58271  97.3863 152.8435 0008004 164.7825 195.3666 15.44649766129891",
    "meta": {
      "display_name": "PlanetScope-58271",
      "type": "optical",
      "swath_km": 8.0,
      "resolution_m": 4.0,
      "off_nadir_deg": 0,
      "altitude_km": 525.0,
      "priority": 10
    }
  },
  "58273": {
    "name": "PlanetScope-58273",
    "line1": "1 58273U 23174T   26066.75519957  .00033901  00000-0  71730-3 0  9997",
    "line2": "2 58273  97.3901 153.3306 0007690 162.1380 198.0140 15.45031893129903",
    "meta": {
      "display_name": "PlanetScope-58273",
      "type": "optical",
      "swath_km": 8.0,
      "resolution_m": 4.0,
      "off_nadir_deg": 0,
      "altitude_km": 525.0,
      "priority": 10
    }
  },
  "58274": {
    "name": "PlanetScope-58274",
    "line1": "1 58274U 23174U   26066.80335478  .00034957  00000-0  60051-3 0  9994",
    "line2": "2 58274  97.3886 156.0224 0007739 152.1752 207.9916 15.51038459130085",
    "meta": {
      "display_name": "PlanetScope-58274",
      "type": "optical",
      "swath_km": 8.0,
      "resolution_m": 4.0,
      "off_nadir_deg": 0,
      "altitude_km": 525.0,
      "priority": 10
    }
  },
  "58275": {
    "name": "PlanetScope-58275",
    "line1": "1 58275U 23174V   26066.81259587  .00111213  00000-0  18468-2 0  9997",
    "line2": "2 58275  97.3881 155.9170 0005618 160.5239 199.6229 15.51687531130104",
    "meta": {
      "display_name": "PlanetScope-58275",
      "type": "optical",
      "swath_km": 8.0,
      "resolution_m": 4.0,
      "off_nadir_deg": 0,
      "altitude_km": 525.0,
      "priority": 10
    }
  },
  "58280": {
    "name": "PlanetScope-58280",
    "line1": "1 58280U 23174AA  26066.75773560  .00036551  00000-0  67690-3 0  9991",
    "line2": "2 58280  97.3905 155.0923 0007360 158.8654 201.2902 15.48894247130019",
    "meta": {
      "display_name": "PlanetScope-58280",
      "type": "optical",
      "swath_km": 8.0,
      "resolution_m": 4.0,
      "off_nadir_deg": 0,
      "altitude_km": 525.0,
      "priority": 10
    }
  },
  "58282": {
    "name": "PlanetScope-58282",
    "line1": "1 58282U 23174AC  26066.75356203  .00041069  00000-0  76024-3 0  9995",
    "line2": "2 58282  97.3854 154.6297 0006588 154.2753 205.8827 15.48887743130024",
    "meta": {
      "display_name": "PlanetScope-58282",
      "type": "optical",
      "swath_km": 8.0,
      "resolution_m": 4.0,
      "off_nadir_deg": 0,
      "altitude_km": 525.0,
      "priority": 10
    }
  },
  "58283": {
    "name": "PlanetScope-58283",
    "line1": "1 58283U 23174AD  26066.75169732  .00240240  00000-0  22660-2 0  9993",
    "line2": "2 58283  97.3823 158.2459 0003660 205.0988 155.0095 15.66288548130261",
    "meta": {
      "display_name": "PlanetScope-58283",
      "type": "optical",
      "swath_km": 8.0,
      "resolution_m": 4.0,
      "off_nadir_deg": 0,
      "altitude_km": 525.0,
      "priority": 10
    }
  },
  "58284": {
    "name": "PlanetScope-58284",
    "line1": "1 58284U 23174AE  26066.73020217  .00043619  00000-0  75715-3 0  9997",
    "line2": "2 58284  97.3895 156.0337 0007268 156.9757 203.1822 15.50702260130075",
    "meta": {
      "display_name": "PlanetScope-58284",
      "type": "optical",
      "swath_km": 8.0,
      "resolution_m": 4.0,
      "off_nadir_deg": 0,
      "altitude_km": 525.0,
      "priority": 10
    }
  },
  "58285": {
    "name": "PlanetScope-58285",
    "line1": "1 58285U 23174AF  26066.76082231  .00047239  00000-0  83296-3 0  9990",
    "line2": "2 58285  97.3946 155.7074 0007785 158.3602 201.7980 15.50235578130034",
    "meta": {
      "display_name": "PlanetScope-58285",
      "type": "optical",
      "swath_km": 8.0,
      "resolution_m": 4.0,
      "off_nadir_deg": 0,
      "altitude_km": 525.0,
      "priority": 10
    }
  },
  "58286": {
    "name": "PlanetScope-58286",
    "line1": "1 58286U 23174AG  26066.81360554  .00047522  00000-0  83143-3 0  9990",
    "line2": "2 58286  97.3946 155.9427 0007466 155.6195 204.5411 15.50458219130053",
    "meta": {
      "display_name": "PlanetScope-58286",
      "type": "optical",
      "swath_km": 8.0,
      "resolution_m": 4.0,
      "off_nadir_deg": 0,
      "altitude_km": 525.0,
      "priority": 10
    }
  },
  "58288": {
    "name": "ICEYE-58288",
    "line1": "1 58288U 23174AJ  26066.93648964  .00026033  00000-0  87340-3 0  9996",
    "line2": "2 58288  97.3854 142.9352 0001571 344.4976  15.6217 15.30863884129242",
    "meta": {
      "display_name": "ICEYE-58288",
      "type": "sar",
      "swath_km": 5.0,
      "resolution_m": 1.0,
      "off_nadir_deg": 40,
      "altitude_km": 580.0,
      "priority": 10
    }
  },
  "58294": {
    "name": "ICEYE-58294",
    "line1": "1 58294U 23174AQ  26066.96201998  .00076448  00000-0  12664-2 0  9999",
    "line2": "2 58294  97.3926 154.3394 0004881 169.3166 190.8191 15.51892600129983",
    "meta": {
      "display_name": "ICEYE-58294",
      "type": "sar",
      "swath_km": 5.0,
      "resolution_m": 1.0,
      "off_nadir_deg": 40,
      "altitude_km": 580.0,
      "priority": 10
    }
  }
}